{
  "type": "FeatureCollection",
  "features": [
    {
      "type": "Feature",
      "properties": {
        "norad_id": 40376,
        "name": "SMAP",
        "group": "resource",
        "lat": 37.346279689283726,
        "lon": -168.2828848968316,
        "alt_km": 679.0892553213725,
        "timestamp": "2025-12-26T22:28:05.436452+00:00",
        "meta_object_name": "SMAP",
        "meta_object_id": "2015-003A",
        "meta_epoch": "2025-12-26T16:53:52.395360",
        "meta_mean_motion": 14.63362199,
        "meta_eccentricity": 0.0001239,
        "meta_inclination": 98.1291,
        "meta_ra_of_asc_node": 5.2267,
        "meta_arg_of_pericenter": 92.3098,
        "meta_mean_anomaly": 267.8246,
        "meta_ephemeris_type": 0,
        "meta_classification_type": "U",
        "meta_norad_cat_id": 40376,
        "meta_element_set_no": 999,
        "meta_rev_at_epoch": 58239,
        "meta_bstar": 0.00012572,
        "meta_mean_motion_dot": 6.03e-06,
        "meta_mean_motion_ddot": 0,
        "tle_line1": "1 40376U 15003A   25360.70407865  .00000603  00000+0  12572-3 0  9990",
        "tle_line2": "2 40376  98.1291   5.2267 0001239  92.3098 267.8246 14.63362199582396"
      },
      "geometry": {
        "type": "Point",
        "coordinates": [
          -168.2828848968316,
          37.346279689283726
        ]
      }
    },
    {
      "type": "Feature",
      "properties": {
        "norad_id": 40536,
        "name": "KOMPSAT-3A",
        "group": "resource",
        "lat": -1.074612728644639,
        "lon": -23.781827502017688,
        "alt_km": 436.6713695327353,
        "timestamp": "2025-12-26T22:28:05.436463+00:00",
        "meta_object_name": "KOMPSAT-3A",
        "meta_object_id": "2015-014A",
        "meta_epoch": "2025-12-26T17:48:28.967616",
        "meta_mean_motion": 15.44467181,
        "meta_eccentricity": 0.0005665,
        "meta_inclination": 97.6807,
        "meta_ra_of_asc_node": 335.868,
        "meta_arg_of_pericenter": 97.1699,
        "meta_mean_anomaly": 263.0193,
        "meta_ephemeris_type": 0,
        "meta_classification_type": "U",
        "meta_norad_cat_id": 40536,
        "meta_element_set_no": 999,
        "meta_rev_at_epoch": 59511,
        "meta_bstar": 0.0004632,
        "meta_mean_motion_dot": 0.00021396,
        "meta_mean_motion_ddot": 0,
        "tle_line1": "1 40536U 15014A   25360.74200194  .00021396  00000+0  46320-3 0  9990",
        "tle_line2": "2 40536  97.6807 335.8680 0005665  97.1699 263.0193 15.44467181595119"
      },
      "geometry": {
        "type": "Point",
        "coordinates": [
          -23.781827502017688,
          -1.074612728644639
        ]
      }
    },
    {
      "type": "Feature",
      "properties": {
        "norad_id": 40697,
        "name": "SENTINEL-2A",
        "group": "resource",
        "lat": 29.44146718881869,
        "lon": -101.8461362229191,
        "alt_km": 787.2024736069761,
        "timestamp": "2025-12-26T22:28:05.436473+00:00",
        "meta_object_name": "SENTINEL-2A",
        "meta_object_id": "2015-028A",
        "meta_epoch": "2025-12-26T18:24:44.750304",
        "meta_mean_motion": 14.30811325,
        "meta_eccentricity": 0.0001043,
        "meta_inclination": 98.5724,
        "meta_ra_of_asc_node": 73.1033,
        "meta_arg_of_pericenter": 87.0219,
        "meta_mean_anomaly": 273.1083,
        "meta_ephemeris_type": 0,
        "meta_classification_type": "U",
        "meta_norad_cat_id": 40697,
        "meta_element_set_no": 999,
        "meta_rev_at_epoch": 54907,
        "meta_bstar": 9.8441e-05,
        "meta_mean_motion_dot": 2.14e-06,
        "meta_mean_motion_ddot": 0,
        "tle_line1": "1 40697U 15028A   25360.76718461  .00000214  00000+0  98441-4 0  9994",
        "tle_line2": "2 40697  98.5724  73.1033 0001043  87.0219 273.1083 14.30811325549072"
      },
      "geometry": {
        "type": "Point",
        "coordinates": [
          -101.8461362229191,
          29.44146718881869
        ]
      }
    },
    {
      "type": "Feature",
      "properties": {
        "norad_id": 40701,
        "name": "GAOFEN-8",
        "group": "resource",
        "lat": -53.216767205550845,
        "lon": -169.81312435170173,
        "alt_km": 462.12818057761797,
        "timestamp": "2025-12-26T22:28:05.436484+00:00",
        "meta_object_name": "GAOFEN-8",
        "meta_object_id": "2015-030A",
        "meta_epoch": "2025-12-26T18:01:16.204800",
        "meta_mean_motion": 15.3907511,
        "meta_eccentricity": 0.0011531,
        "meta_inclination": 97.6905,
        "meta_ra_of_asc_node": 179.5793,
        "meta_arg_of_pericenter": 89.7977,
        "meta_mean_anomaly": 270.4589,
        "meta_ephemeris_type": 0,
        "meta_classification_type": "U",
        "meta_norad_cat_id": 40701,
        "meta_element_set_no": 999,
        "meta_rev_at_epoch": 58486,
        "meta_bstar": 0.00078427,
        "meta_mean_motion_dot": 0.00030421,
        "meta_mean_motion_ddot": 0,
        "tle_line1": "1 40701U 15030A   25360.75088200  .00030421  00000+0  78427-3 0  9997",
        "tle_line2": "2 40701  97.6905 179.5793 0011531  89.7977 270.4589 15.39075110584867"
      },
      "geometry": {
        "type": "Point",
        "coordinates": [
          -169.81312435170173,
          -53.216767205550845
        ]
      }
    },
    {
      "type": "Feature",
      "properties": {
        "norad_id": 40718,
        "name": "CARBONITE 1 (CBNT-1)",
        "group": "resource",
        "lat": -77.00620445038547,
        "lon": -34.21863572384975,
        "alt_km": 633.7846458077747,
        "timestamp": "2025-12-26T22:28:05.436494+00:00",
        "meta_object_name": "CARBONITE 1 (CBNT-1)",
        "meta_object_id": "2015-032D",
        "meta_epoch": "2025-12-26T18:03:49.372992",
        "meta_mean_motion": 14.82811755,
        "meta_eccentricity": 0.0015447,
        "meta_inclination": 97.6408,
        "meta_ra_of_asc_node": 181.1805,
        "meta_arg_of_pericenter": 136.3715,
        "meta_mean_anomaly": 223.8724,
        "meta_ephemeris_type": 0,
        "meta_classification_type": "U",
        "meta_norad_cat_id": 40718,
        "meta_element_set_no": 999,
        "meta_rev_at_epoch": 56378,
        "meta_bstar": 0.00047809,
        "meta_mean_motion_dot": 3.826e-05,
        "meta_mean_motion_ddot": 0,
        "tle_line1": "1 40718U 15032D   25360.75265478  .00003826  00000+0  47809-3 0  9990",
        "tle_line2": "2 40718  97.6408 181.1805 0015447 136.3715 223.8724 14.82811755563786"
      },
      "geometry": {
        "type": "Point",
        "coordinates": [
          -34.21863572384975,
          -77.00620445038547
        ]
      }
    },
    {
      "type": "Feature",
      "properties": {
        "norad_id": 40878,
        "name": "YAOGAN-27",
        "group": "resource",
        "lat": 79.84571354508594,
        "lon": -105.60413703237572,
        "alt_km": 1197.7808973127421,
        "timestamp": "2025-12-26T22:28:05.436505+00:00",
        "meta_object_name": "YAOGAN-27",
        "meta_object_id": "2015-040A",
        "meta_epoch": "2025-12-26T18:21:29.184768",
        "meta_mean_motion": 13.16060161,
        "meta_eccentricity": 0.0007589,
        "meta_inclination": 100.1025,
        "meta_ra_of_asc_node": 349.7509,
        "meta_arg_of_pericenter": 251.9516,
        "meta_mean_anomaly": 108.0771,
        "meta_ephemeris_type": 0,
        "meta_classification_type": "U",
        "meta_norad_cat_id": 40878,
        "meta_element_set_no": 999,
        "meta_rev_at_epoch": 49498,
        "meta_bstar": -0.00099411,
        "meta_mean_motion_dot": -4.2e-06,
        "meta_mean_motion_ddot": 0,
        "tle_line1": "1 40878U 15040A   25360.76492112 -.00000420  00000+0 -99411-3 0  9999",
        "tle_line2": "2 40878 100.1025 349.7509 0007589 251.9516 108.0771 13.16060161494986"
      },
      "geometry": {
        "type": "Point",
        "coordinates": [
          -105.60413703237572,
          79.84571354508594
        ]
      }
    },
    {
      "type": "Feature",
      "properties": {
        "norad_id": 40894,
        "name": "GAOFEN-9 01",
        "group": "resource",
        "lat": 16.79960987753056,
        "lon": -138.39613228652243,
        "alt_km": 641.1790196313605,
        "timestamp": "2025-12-26T22:28:05.436516+00:00",
        "meta_object_name": "GAOFEN-9 01",
        "meta_object_id": "2015-047A",
        "meta_epoch": "2025-12-26T18:29:44.001024",
        "meta_mean_motion": 14.82456396,
        "meta_eccentricity": 0.0027243,
        "meta_inclination": 97.6525,
        "meta_ra_of_asc_node": 39.1191,
        "meta_arg_of_pericenter": 348.7667,
        "meta_mean_anomaly": 11.2936,
        "meta_ephemeris_type": 0,
        "meta_classification_type": "U",
        "meta_norad_cat_id": 40894,
        "meta_element_set_no": 999,
        "meta_rev_at_epoch": 55464,
        "meta_bstar": 0.00016024,
        "meta_mean_motion_dot": 1.242e-05,
        "meta_mean_motion_ddot": 0,
        "tle_line1": "1 40894U 15047A   25360.77064816  .00001242  00000+0  16024-3 0  9991",
        "tle_line2": "2 40894  97.6525  39.1191 0027243 348.7667  11.2936 14.82456396554648"
      },
      "geometry": {
        "type": "Point",
        "coordinates": [
          -138.39613228652243,
          16.79960987753056
        ]
      }
    }
  ]
}